{
    "links": {
        "self": "http://www.neowsapp.com/rest/v1/neo/3695654?api_key=iIulBulltgU6a56xZRHN4H3l9WmuAYTsLGpBGhQ2"
    },
    "id": "3695654",
    "neo_reference_id": "3695654",
    "name": "(2014 UF192)",
    "designation": "2014 UF192",
    "nasa_jpl_url": "http://ssd.jpl.nasa.gov/sbdb.cgi?sstr=3695654",
    "absolute_magnitude_h": 24.5,
    "estimated_diameter": {
        "kilometers": {
            "estimated_diameter_min": 0.0334622374,
            "estimated_diameter_max": 0.0748238376
        },
        "meters": {
            "estimated_diameter_min": 33.4622374455,
            "estimated_diameter_max": 74.8238376074
        },
        "miles": {
            "estimated_diameter_min": 0.0207924639,
            "estimated_diameter_max": 0.0464933628
        },
        "feet": {
            "estimated_diameter_min": 109.7842471007,
            "estimated_diameter_max": 245.4850393757
        }
    },
    "is_potentially_hazardous_asteroid": false,
    "close_approach_data": [
        {
            "close_approach_date": "2014-11-11",
            "close_approach_date_full": "2014-Nov-11 03:46",
            "epoch_date_close_approach": 1415677560000,
            "relative_velocity": {
                "kilometers_per_second": "11.951940885",
                "kilometers_per_hour": "43026.987186144",
                "miles_per_hour": "26735.296565746"
            },
            "miss_distance": {
                "astronomical": "0.0610989081",
                "lunar": "23.7674752509",
                "kilometers": "9140266.511085747",
                "miles": "5679498.2481554286"
            },
            "orbiting_body": "Earth"
        }
    ],
    "orbital_data": {
        "orbit_id": "4",
        "orbit_determination_date": "2017-04-06 08:37:39",
        "first_observation_date": "2014-10-30",
        "last_observation_date": "2014-11-02",
        "data_arc_in_days": 3,
        "observations_used": 47,
        "orbit_uncertainty": "8",
        "minimum_orbit_intersection": ".053111",
        "jupiter_tisserand_invariant": "4.251",
        "epoch_osculation": "2456962.5",
        "eccentricity": ".4574086091509327",
        "semi_major_axis": "1.587441640053057",
        "inclination": "7.769301062724075",
        "ascending_node_longitude": "29.7920405881584",
        "orbital_period": "730.5418144734783",
        "perihelion_distance": ".8613321673681128",
        "perihelion_argument": "79.17321734490069",
        "aphelion_distance": "2.313551112738002",
        "perihelion_time": "2457016.776093356886",
        "mean_anomaly": "333.2535589046856",
        "mean_motion": ".4927849342333155",
        "equinox": "J2000",
        "orbit_class": {
            "orbit_class_type": "APO",
            "orbit_class_description": "Near-Earth asteroid orbits which cross the Earth’s orbit similar to that of 1862 Apollo",
            "orbit_class_range": "a (semi-major axis) > 1.0 AU; q (perihelion) < 1.017 AU"
        }
    },
    "is_sentry_object": false
}